[{"OBJECT_NAME":"OBJECT D","OBJECT_ID":"2025-055D","EPOCH":"2026-03-09T22:34:08.531328","MEAN_MOTION":15.14873304,"ECCENTRICITY":0.00167206,"INCLINATION":97.6361,"RA_OF_ASC_NODE":208.0641,"ARG_OF_PERICENTER":122.8096,"MEAN_ANOMALY":237.4749,"EPHEMERIS_TYPE":0,"CLASSIFICATION_TYPE":"U","NORAD_CAT_ID":63294,"ELEMENT_SET_NO":999,"REV_AT_EPOCH":5397,"BSTAR":0.00070425888,"MEAN_MOTION_DOT":0.00013093,"MEAN_MOTION_DDOT":0},{"OBJECT_NAME":"FENGYUN 1C DEB","OBJECT_ID":"1999-025DXL","EPOCH":"2026-02-25T04:10:22.321344","MEAN_MOTION":15.11307044,"ECCENTRICITY":0.00591738,"INCLINATION":99.4273,"RA_OF_ASC_NODE":43.0945,"ARG_OF_PERICENTER":165.3437,"MEAN_ANOMALY":194.9519,"EPHEMERIS_TYPE":0,"CLASSIFICATION_TYPE":"U","NORAD_CAT_ID":36283,"ELEMENT_SET_NO":999,"REV_AT_EPOCH":67788,"BSTAR":0.0012995165,"MEAN_MOTION_DOT":0.00022794,"MEAN_MOTION_DDOT":0}]
